IRIDIUM 116             
1 43072U 17083C   25057.53323030  .00000105  00000+0  30498-4 0  9996
2 43072  86.4035 160.8362 0002023  93.4936 266.6491 14.34218473375995
IRIDIUM 130             
1 43073U 17083D   25057.57128551  .00000314  00000+0  10488-3 0  9990
2 43073  86.4046 161.0492 0002222  89.8803 270.2647 14.34219568375943
IRIDIUM 151             
1 43074U 17083E   25057.54591211 -.00000493  00000+0 -18326-3 0  9994
2 43074  86.4042 160.8782 0001728  94.5675 265.5718 14.34220777375961
IRIDIUM 134             
1 43075U 17083F   25057.58397196  .00000147  00000+0  45477-4 0  9997
2 43075  86.4038 160.8637 0002228  91.5217 268.6234 14.34218366375936
IRIDIUM 137             
1 43076U 17083G   25057.31758113  .00000217  00000+0  70353-4 0  9998
2 43076  86.4041 161.0576 0001604  89.6188 270.5192 14.34218695375961
IRIDIUM 141             
1 43077U 17083H   25057.52054656  .00000241  00000+0  78908-4 0  9994
2 43077  86.4036 160.8310 0002409 103.5620 256.5844 14.34218376375997
IRIDIUM 153             
1 43078U 17083J   25057.47272571  .00000005  00000+0 -54130-5 0  9998
2 43078  86.3987 129.3684 0002595 106.8177 253.3303 14.34217872377093
IRIDIUM 131             
1 43079U 17083K   25057.57762840  .00000436  00000+0  14858-3 0  9991
2 43079  86.4043 160.9615 0002082 104.3282 255.8145 14.34218333375939
